******** Week 935 almanac for PRN-01 ********
ID:                         01
Health:                     000
Eccentricity:               4.3773651123E-004
Time of Applicability(s):  516096.0000
Orbital Inclination(rad):   0.0257960441
Rate of Right Ascen(r/s):   7.6574618200E-010
SQRT(A)  (m 1/2):           6493.450195
Right Ascen at Week(rad):  -1.0371598000E-002
Argument of Perigee(rad):   2.991335940
Mean Anom(rad):            -5.2243618100E-001
Af0(s):                     8.8024140000E-004
Af1(s/s):                   0.0000000000E+000
week:                        935

******** Week 935 almanac for PRN-10 ********
ID:                         10
Health:                     000
Eccentricity:               9.3932151794E-003
Time of Applicability(s):  516096.0000
Orbital Inclination(rad):  -0.0803602201
Rate of Right Ascen(r/s):  -2.3086675900E-009
SQRT(A)  (m 1/2):           6492.949219
Right Ascen at Week(rad):  -2.5965489810E+000
Argument of Perigee(rad):  -2.425915340
Mean Anom(rad):             2.8478413200E-001
Af0(s):                    -4.6730040000E-005
Af1(s/s):                  -1.4551900000E-011
week:                        935

******** Week 935 almanac for PRN-11 ********
ID:                         11
Health:                     000
Eccentricity:               2.3145675659E-003
Time of Applicability(s):  495616.0000
Orbital Inclination(rad):   0.0425679669
Rate of Right Ascen(r/s):  -7.0631513500E-009
SQRT(A)  (m 1/2):           5282.584473
Right Ascen at Week(rad):  -1.6728682170E+000
Argument of Perigee(rad):  -1.700381002
Mean Anom(rad):             1.2247611950E+000
Af0(s):                     2.9659270000E-004
Af1(s/s):                   1.8189900000E-011
week:                        935

******** Week 935 almanac for PRN-12 ********
ID:                         12
Health:                     000
Eccentricity:               1.4066696167E-003
Time of Applicability(s):  483328.0000
Orbital Inclination(rad):   0.0409980334
Rate of Right Ascen(r/s):  -7.0860094500E-009
SQRT(A)  (m 1/2):           5282.577148
Right Ascen at Week(rad):  -1.6852509180E+000
Argument of Perigee(rad):  -1.642349640
Mean Anom(rad):             3.1129361200E-001
Af0(s):                     8.3255770000E-004
Af1(s/s):                  -1.0913900000E-011
week:                        935

******** Week 935 almanac for PRN-13 ********
ID:                         13
Health:                     000
Eccentricity:               4.9257278442E-003
Time of Applicability(s):  516096.0000
Orbital Inclination(rad):   0.0859568531
Rate of Right Ascen(r/s):  -1.4057728400E-009
SQRT(A)  (m 1/2):           6493.642578
Right Ascen at Week(rad):  -4.2292928900E-001
Argument of Perigee(rad):  -2.415916377
Mean Anom(rad):            -1.8430509520E+000
Af0(s):                     3.9291380000E-004
Af1(s/s):                   3.6379800000E-012
week:                        935

******** Week 935 almanac for PRN-14 ********
ID:                         14
Health:                     000
Eccentricity:               1.0104179382E-003
Time of Applicability(s):  499712.0000
Orbital Inclination(rad):   0.0310750952
Rate of Right Ascen(r/s):  -6.4802699300E-009
SQRT(A)  (m 1/2):           5282.583008
Right Ascen at Week(rad):   3.8407006500E-001
Argument of Perigee(rad):  -0.297385919
Mean Anom(rad):            -1.6978594460E+000
Af0(s):                    -2.8896330000E-004
Af1(s/s):                   7.6397600000E-011
week:                        935

******** Week 935 almanac for PRN-15 ********
ID:                         15
Health:                     000
Eccentricity:               2.1969318390E-002
Time of Applicability(s):  421888.0000
Orbital Inclination(rad):  -0.1488680418
Rate of Right Ascen(r/s):  -1.2090789300E-007
SQRT(A)  (m 1/2):           5704.388184
Right Ascen at Week(rad):   3.0563582250E+000
Argument of Perigee(rad):  -1.414647868
Mean Anom(rad):             2.1552302740E+000
Af0(s):                    -9.0217590000E-004
Af1(s/s):                  -1.3060300000E-009
week:                        935

******** Week 935 almanac for PRN-16 ********
ID:                         16
Health:                     000
Eccentricity:               6.2742233276E-003
Time of Applicability(s):  516096.0000
Orbital Inclination(rad):   0.0185336038
Rate of Right Ascen(r/s):  -2.0229414100E-009
SQRT(A)  (m 1/2):           6493.724609
Right Ascen at Week(rad):   1.7360456800E+000
Argument of Perigee(rad):  -2.300544993
Mean Anom(rad):             2.4473753420E+000
Af0(s):                    -2.1648410000E-004
Af1(s/s):                  -1.8189900000E-011
week:                        935

******** Week 935 almanac for PRN-19 ********
ID:                         19
Health:                     000
Eccentricity:               6.6709518433E-004
Time of Applicability(s):  516096.0000
Orbital Inclination(rad):   0.0337895221
Rate of Right Ascen(r/s):  -6.3431213600E-009
SQRT(A)  (m 1/2):           5282.589355
Right Ascen at Week(rad):   3.8519770600E-001
Argument of Perigee(rad):  -1.123487379
Mean Anom(rad):            -2.2010407220E+000
Af0(s):                    -9.5558170000E-004
Af1(s/s):                   7.2759600000E-012
week:                        935

******** Week 935 almanac for PRN-02 ********
ID:                         02
Health:                     000
Eccentricity:               7.9822540283E-004
Time of Applicability(s):  516096.0000
Orbital Inclination(rad):   0.0360904933
Rate of Right Ascen(r/s):   1.2571952200E-010
SQRT(A)  (m 1/2):           6493.329590
Right Ascen at Week(rad):   1.6339854000E-001
Argument of Perigee(rad):  -1.188249382
Mean Anom(rad):             2.4245487640E+000
Af0(s):                     2.3460390000E-004
Af1(s/s):                   3.2741800000E-011
week:                        935

******** Week 935 almanac for PRN-20 ********
ID:                         20
Health:                     000
Eccentricity:               4.7636032104E-004
Time of Applicability(s):  516096.0000
Orbital Inclination(rad):   0.0337775379
Rate of Right Ascen(r/s):  -6.3545504100E-009
SQRT(A)  (m 1/2):           5282.591309
Right Ascen at Week(rad):   3.8582650300E-001
Argument of Perigee(rad):  -0.442398037
Mean Anom(rad):            -2.1429692880E+000
Af0(s):                     4.6730040000E-005
Af1(s/s):                  -3.2741800000E-011
week:                        935

******** Week 935 almanac for PRN-21 ********
ID:                         21
Health:                     000
Eccentricity:               4.4202804565E-004
Time of Applicability(s):  516096.0000
Orbital Inclination(rad):   0.0330584844
Rate of Right Ascen(r/s):  -6.3545504100E-009
SQRT(A)  (m 1/2):           5282.587891
Right Ascen at Week(rad):   3.8694066200E-001
Argument of Perigee(rad):  -0.786507079
Mean Anom(rad):             2.1698514030E+000
Af0(s):                    -9.6797940000E-004
Af1(s/s):                   0.0000000000E+000
week:                        935

******** Week 935 almanac for PRN-22 ********
ID:                         22
Health:                     000
Eccentricity:               3.8146972656E-004
Time of Applicability(s):  516096.0000
Orbital Inclination(rad):   0.0330704686
Rate of Right Ascen(r/s):  -6.3545504100E-009
SQRT(A)  (m 1/2):           5282.589355
Right Ascen at Week(rad):   3.8686126600E-001
Argument of Perigee(rad):   0.503823182
Mean Anom(rad):             1.6603128690E+000
Af0(s):                    -1.9359590000E-004
Af1(s/s):                   1.4551900000E-011
week:                        935

******** Week 935 almanac for PRN-23 ********
ID:                         23
Health:                     000
Eccentricity:               2.4032592773E-004
Time of Applicability(s):  516096.0000
Orbital Inclination(rad):   0.0026545058
Rate of Right Ascen(r/s):  -6.7545670700E-009
SQRT(A)  (m 1/2):           5282.591309
Right Ascen at Week(rad):   2.4802727880E+000
Argument of Perigee(rad):   0.525244609
Mean Anom(rad):             2.7789395220E+000
Af0(s):                    -8.0680850000E-004
Af1(s/s):                   7.2759600000E-012
week:                        935

******** Week 935 almanac for PRN-24 ********
ID:                         24
Health:                     000
Eccentricity:               8.4781646729E-004
Time of Applicability(s):  516096.0000
Orbital Inclination(rad):   0.0026485137
Rate of Right Ascen(r/s):  -6.7545670700E-009
SQRT(A)  (m 1/2):           5282.581543
Right Ascen at Week(rad):   2.4800945230E+000
Argument of Perigee(rad):   0.787747071
Mean Anom(rad):            -2.2064946680E+000
Af0(s):                     6.7424770000E-004
Af1(s/s):                   3.6379800000E-011
week:                        935

******** Week 935 almanac for PRN-25 ********
ID:                         25
Health:                     000
Eccentricity:               6.1893463135E-004
Time of Applicability(s):  516096.0000
Orbital Inclination(rad):   0.0041225734
Rate of Right Ascen(r/s):  -6.7431380200E-009
SQRT(A)  (m 1/2):           5282.564941
Right Ascen at Week(rad):   2.4561740100E+000
Argument of Perigee(rad):   0.737064286
Mean Anom(rad):            -2.9667252100E+000
Af0(s):                     2.7370450000E-004
Af1(s/s):                   7.2759600000E-012
week:                        935

